STARLINK-36673          
1 67660U 26022N   26054.35485509  .00205549  00000+0  13438-2 0  9998
2 67660  97.2841  87.6440 0002313  91.0677 269.0853 15.75227047  3293
STARLINK-36674          
1 67661U 26022P   26054.35344325  .00323046  00000+0  20802-2 0  9995
2 67661  97.2842  87.6462 0002163  98.3349 261.8161 15.75252681  3292
STARLINK-36700          
1 67662U 26022Q   26054.35132337  .00365197  00000+0  23351-2 0  9999
2 67662  97.2845  87.6491 0001332  94.3877 265.7541 15.75298991  3296
STARLINK-36675          
1 67663U 26022R   26054.03509441  .00308846  00000+0  19883-2 0  9992
2 67663  97.2840  87.3139 0001709 105.7300 254.4154 15.75296893  3243
STARLINK-36404          
1 67664U 26022S   26054.34956061  .00269171  00000+0  17453-2 0  9999
2 67664  97.2849  87.6502 0002605  93.7245 266.4318 15.75240633  3291
STARLINK-36399          
1 67665U 26022T   26054.34885484  .00289324  00000+0  18709-2 0  9997
2 67665  97.2850  87.6515 0002310 109.8492 250.3022 15.75248091  3294
STARLINK-36365          
1 67666U 26022U   26054.02980276  .00326030  00000+0  20941-2 0  9995
2 67666  97.2851  87.3204 0000642  62.9683 297.1648 15.75301680  3247
STARLINK-36622          
1 67667U 26022V   26054.34567740  .00294476  00000+0  19006-2 0  9996
2 67667  97.2849  87.6565 0002673  95.9198 264.2372 15.75277353  3294
STARLINK-36625          
1 67668U 26022W   26054.09015194  .00041232  00000+0  27592-3 0  9990
2 67668  97.2854  87.3909 0001819  98.2779 261.8693 15.75193324  3252
STARLINK-36639          
1 67669U 26022X   26054.08838714  .00097375  00000+0  64534-3 0  9997
2 67669  97.2856  87.3937 0002027 110.9556 249.1926 15.75223051  3252
STARLINK-36596          
1 67670U 26022Y   26054.34073718  .00315733  00000+0  20323-2 0  9991
2 67670  97.2854  87.6627 0002560 117.8062 242.3463 15.75281858  3295
STARLINK-36297          
1 67671U 26022Z   26054.33861838  .00321435  00000+0  20674-2 0  9994
2 67671  97.2856  87.6653 0002474 122.1301 238.0205 15.75283804  3295
